OBJECT_NAME,OBJECT_ID,EPOCH,MEAN_MOTION,ECCENTRICITY,INCLINATION,RA_OF_ASC_NODE,ARG_OF_PERICENTER,MEAN_ANOMALY,EPHEMERIS_TYPE,CLASSIFICATION_TYPE,NORAD_CAT_ID,ELEMENT_SET_NO,REV_AT_EPOCH,BSTAR,MEAN_MOTION_DOT,MEAN_MOTION_DDOT
GAOFEN-11 01,2018-063A,2026-06-26T22:51:05.330592,15.55557014,.0002161,97.1293,244.8043,308.8613,51.2449,0,U,43585,999,44186,.18824121E-3,.12785E-3,0
ICESAT-2,2018-070A,2026-06-26T21:52:10.966656,15.28194482,.00062385,92.0083,293.6060,97.2621,262.9338,0,U,43613,999,43394,.37170542E-3,.10217E-3,0
HYSIS,2018-096A,2026-06-26T22:56:49.909344,14.78636171,.00018545,97.9840,244.6276,93.6540,266.4883,0,U,43719,999,40886,.20489072E-3,.1449E-4,0
KAZSTSAT,2018-099AB,2026-06-26T23:18:26.641152,14.99899189,.0008566,97.4288,209.4556,42.9348,317.2544,0,U,43783,999,41277,.16032622E-3,.1934E-4,0
SAUDISAT 5A,2018-102A,2026-06-26T23:41:45.107232,15.28145340,.00113272,97.3070,239.3794,99.3793,260.8728,0,U,43831,999,41717,.22648396E-3,.6151E-4,0
SAUDISAT 5B,2018-102C,2026-06-26T22:32:15.667872,15.28396323,.00120483,97.3178,242.4194,101.3953,258.8641,0,U,43833,999,41728,.2123107E-3,.5808E-4,0
GAOFEN-10R,2019-066A,2026-06-26T22:29:11.896800,14.83019834,.00071429,98.0499,131.5871,99.9921,260.2098,0,U,44622,999,36382,.14475266E-3,.1122E-4,0
CARTOSAT-3,2019-081A,2026-06-26T23:18:05.351328,15.19205352,.00132624,97.4309,239.6809,117.0880,243.1710,0,U,44804,999,36495,.21885105E-3,.4548E-4,0
GAOFEN-12 01,2019-082A,2026-06-26T22:44:26.473632,14.80465908,.00019101,97.8101,184.0693,60.1046,300.0356,0,U,44819,999,35553,.57696203E-4,.391E-5,0
CSG-1,2019-092A,2026-06-26T23:24:33.259680,14.82160957,.00014542,97.8889,1.4362,90.2013,269.9367,0,U,44873,999,35292,.58296311E-4,.412E-5,0
NEMO-HD,2020-061F,2026-06-26T23:26:04.299360,15.44785585,.00017929,97.1922,239.8310,74.5205,285.6242,0,U,46277,999,32349,.24919892E-3,.1158E-3,0
SENTINEL-6A,2020-086A,2026-06-26T22:09:11.638368,12.80929973,.00078577,66.0408,114.8313,270.0122,89.9993,0,U,46984,999,26157,-.6486114E-4,-.76E-6,0
CAS500-1,2021-022A,2026-06-27T00:03:42.096384,15.20180675,.00035822,97.3897,73.0571,246.8635,113.2223,0,U,47932,999,29225,.31225123E-3,.6695E-4,0
GAOFEN-12 02,2021-026A,2026-06-26T23:01:52.476960,14.80303174,.00044293,97.9923,176.1003,185.2756,174.8410,0,U,48079,999,28320,.54060953E-4,.359E-5,0
PLEIADES NEO 3,2021-034A,2026-06-26T23:28:03.951264,14.81673071,.00013911,97.8935,252.6036,87.4049,272.7323,0,U,48268,999,27910,.5277192E-4,.363E-5,0
PLEIADES NEO 4,2021-073E,2026-06-26T22:39:25.386048,14.81667108,.00013371,97.8937,252.5665,87.2695,272.8671,0,U,49070,999,26281,.99876523E-4,.734E-5,0
LANDSAT 9,2021-088A,2026-06-26T22:44:38.809824,14.57103359,.00012681,98.2278,248.0069,85.0261,275.1082,0,U,49260,999,25242,.8025126E-4,.316E-5,0
CSG-2,2022-008A,2026-06-26T22:35:54.952800,14.82153274,.00015666,97.8888,1.3980,86.1185,274.0207,0,U,51444,999,23803,.14465725E-3,.1099E-4,0
GAOFEN-12 03,2022-069A,2026-06-26T23:47:26.135808,14.80050665,.00023669,97.8276,65.6141,93.7904,266.3579,0,U,52912,999,21606,.18605985E-3,.1358E-4,0
SWOT,2022-173A,2026-06-26T22:05:22.239456,14.00170705,.0000286,77.6103,22.1701,86.6169,273.5015,0,U,54754,999,18051,.9086786E-5,.11E-6,0
GAOFEN-12 04,2023-123A,2026-06-27T00:10:29.432640,14.79743852,.0003972,97.9116,95.8829,86.7664,273.4002,0,U,57654,999,15408,.13340198E-3,.951E-5,0
PARS 1,2024-039Q,2026-06-26T23:02:00.735072,15.45922292,.0011502,97.4818,159.1883,83.2003,277.0554,0,U,59065,999,13015,.24256874E-3,.11739E-3,0
RESURS-P 4,2024-061A,2026-06-26T23:51:49.866624,15.32184414,.00027899,97.2751,125.7223,115.4470,244.7061,0,U,59371,999,12526,.10709904E-3,.3251E-4,0
LEGION 1,2024-081A,2026-06-26T22:12:24.338880,15.16729252,.00085678,97.5020,255.6783,343.6290,16.4665,0,U,59625,999,11901,.18958648E-3,.3652E-4,0
LEGION 2,2024-081B,2026-06-26T22:55:46.591968,15.16708144,.00100289,97.5021,255.8053,306.3869,53.6438,0,U,59626,999,11902,.21919725E-3,.4232E-4,0
ALOS-4 (DAICHI-4),2024-123A,2026-06-26T23:10:00.846048,14.79476338,.00015717,97.9217,275.0011,95.8200,264.3191,0,U,60182,999,10732,.19331749E-3,.1393E-4,0
LEGION 3,2024-146A,2026-06-26T21:11:18.740256,15.16034384,.00086188,45.0041,338.5541,228.2783,131.7359,0,U,60452,999,10349,.2255411E-3,.415E-4,0
LEGION 4,2024-146B,2026-06-26T18:06:06.025824,15.16101639,.00126907,45.0018,71.1534,0.2751,359.8132,0,U,60453,999,10232,.21412704E-3,.3937E-4,0
SENTINEL-2C,2024-157A,2026-06-26T19:44:57.403968,14.30820200,.00009306,98.5692,252.4687,88.6928,271.4362,0,U,60989,999,9436,.51274047E-4,.91E-6,0
IONOSFERA-M 1,2024-199A,2026-06-26T21:34:13.266624,14.22755914,.00021488,98.7163,50.9679,97.4474,262.6948,0,U,61735,999,12908,.35781569E-4,.36E-6,0
