GAOFEN-11 01            
1 43585U 18063A   26177.95214503  .00012785  00000+0  18824-3 0  9993
2 43585  97.1293 244.8043 0002161 308.8613  51.2449 15.55557014441868
ICESAT-2                
1 43613U 18070A   26177.91123804  .00010217  00000+0  37171-3 0  9996
2 43613  92.0083 293.6060 0006238  97.2621 262.9338 15.28194482433943
HYSIS                   
1 43719U 18096A   26177.95613321  .00001449  00000+0  20489-3 0  9994
2 43719  97.9840 244.6276 0001854  93.6540 266.4883 14.78636171408866
KAZSTSAT                
1 43783U 18099AB  26177.97114168  .00001934  00000+0  16033-3 0  9994
2 43783  97.4288 209.4556 0008566  42.9348 317.2544 14.99899189412775
SAUDISAT 5A             
1 43831U 18102A   26177.98732763  .00006151  00000+0  22648-3 0  9996
2 43831  97.3070 239.3794 0011327  99.3793 260.8728 15.28145340417174
SAUDISAT 5B             
1 43833U 18102C   26177.93907023  .00005808  00000+0  21231-3 0  9991
2 43833  97.3178 242.4194 0012048 101.3953 258.8641 15.28396323417289
GAOFEN-10R              
1 44622U 19066A   26177.93694325  .00001122  00000+0  14475-3 0  9993
2 44622  98.0499 131.5871 0007142  99.9921 260.2098 14.83019834363828
CARTOSAT-3              
1 44804U 19081A   26177.97089527  .00004548  00000+0  21885-3 0  9996
2 44804  97.4309 239.6809 0013262 117.0880 243.1710 15.19205352364958
GAOFEN-12 01            
1 44819U 19082A   26177.94752863  .00000391  00000+0  57696-4 0  9992
2 44819  97.8101 184.0693 0001910  60.1046 300.0356 14.80465908355536
CSG-1                   
1 44873U 19092A   26177.97538495  .00000412  00000+0  58296-4 0  9990
2 44873  97.8889   1.4362 0001454  90.2013 269.9367 14.82160957352928
NEMO-HD                 
1 46277U 20061F   26177.97643865  .00011580  00000+0  24920-3 0  9990
2 46277  97.1922 239.8310 0001792  74.5205 285.6242 15.44785585323498
SENTINEL-6A             
1 46984U 20086A   26177.92305137 -.00000076  00000+0 -64861-4 0  9993
2 46984  66.0408 114.8313 0007857 270.0122  89.9993 12.80929973261577
CAS500-1                
1 47932U 21022A   26178.00257056  .00006695  00000+0  31225-3 0  9992
2 47932  97.3897  73.0571 0003582 246.8635 113.2223 15.20180675292254
GAOFEN-12 02            
1 48079U 21026A   26177.95963515  .00000359  00000+0  54061-4 0  9991
2 48079  97.9923 176.1003 0004429 185.2756 174.8410 14.80303174283201
PLEIADES NEO 3          
1 48268U 21034A   26177.97782351  .00000363  00000+0  52772-4 0  9991
2 48268  97.8935 252.6036 0001391  87.4049 272.7323 14.81673071279104
PLEIADES NEO 4          
1 49070U 21073E   26177.94404382  .00000734  00000+0  99877-4 0  9997
2 49070  97.8937 252.5665 0001337  87.2695 272.8671 14.81667108262811
LANDSAT 9               
1 49260U 21088A   26177.94767141  .00000316  00000+0  80251-4 0  9991
2 49260  98.2278 248.0069 0001268  85.0261 275.1082 14.57103359252425
CSG-2                   
1 51444U 22008A   26177.94160825  .00001099  00000+0  14466-3 0  9990
2 51444  97.8888   1.3980 0001566  86.1185 274.0207 14.82153274238031
GAOFEN-12 03            
1 52912U 22069A   26177.99127472  .00001358  00000+0  18606-3 0  9992
2 52912  97.8276  65.6141 0002366  93.7904 266.3579 14.80050665216060
SWOT                    
1 54754U 22173A   26177.92039629  .00000011  00000+0  90868-5 0  9990
2 54754  77.6103  22.1701 0000286  86.6169 273.5015 14.00170705180519
GAOFEN-12 04            
1 57654U 23123A   26178.00728510  .00000951  00000+0  13340-3 0  9993
2 57654  97.9116  95.8829 0003972  86.7664 273.4002 14.79743852154087
PARS 1                  
1 59065U 24039Q   26177.95973073  .00011739  00000+0  24257-3 0  9992
2 59065  97.4818 159.1883 0011502  83.2003 277.0554 15.45922292130155
RESURS-P 4              
1 59371U 24061A   26177.99432716  .00003251  00000+0  10710-3 0  9994
2 59371  97.2751 125.7223 0002789 115.4470 244.7061 15.32184414125261
LEGION 1                
1 59625U 24081A   26177.92528170  .00003652  00000+0  18959-3 0  9999
2 59625  97.5020 255.6783 0008567 343.6290  16.4665 15.16729252119011
LEGION 2                
1 59626U 24081B   26177.95540037  .00004232  00000+0  21920-3 0  9996
2 59626  97.5021 255.8053 0010028 306.3869  53.6438 15.16708144119027
ALOS-4 (DAICHI-4)       
1 60182U 24123A   26177.96528757  .00001393  00000+0  19332-3 0  9997
2 60182  97.9217 275.0011 0001571  95.8200 264.3191 14.79476338107329
LEGION 3                
1 60452U 24146A   26177.88285579  .00004150  00000+0  22554-3 0  9999
2 60452  45.0041 338.5541 0008618 228.2783 131.7359 15.16034384103498
LEGION 4                
1 60453U 24146B   26177.75423641  .00003937  00000+0  21413-3 0  9995
2 60453  45.0018  71.1534 0012690   0.2751 359.8132 15.16101639102324
SENTINEL-2C             
1 60989U 24157A   26177.82288662  .00000091  00000+0  51274-4 0  9998
2 60989  98.5692 252.4687 0000930  88.6928 271.4362 14.30820200 94367
IONOSFERA-M 1           
1 61735U 24199A   26177.89876466  .00000036  00000+0  35782-4 0  9991
2 61735  98.7163  50.9679 0002148  97.4474 262.6948 14.22755914129081
